[{"OBJECT_NAME":"STARLINK-30182","OBJECT_ID":"2023-102J","EPOCH":"2026-03-09T22:00:01.999584","MEAN_MOTION":15.17692309,"ECCENTRICITY":0.00017334,"INCLINATION":43.0001,"RA_OF_ASC_NODE":246.596,"ARG_OF_PERICENTER":271.5021,"MEAN_ANOMALY":59.9842,"EPHEMERIS_TYPE":0,"CLASSIFICATION_TYPE":"U","NORAD_CAT_ID":57412,"ELEMENT_SET_NO":999,"REV_AT_EPOCH":577,"BSTAR":0.0061388079,"MEAN_MOTION_DOT":0.00128052,"MEAN_MOTION_DDOT":0},{"OBJECT_NAME":"SPACEMOBILE-002","OBJECT_ID":"2024-163D","EPOCH":"2026-03-09T08:46:52.476096","MEAN_MOTION":15.21108485,"ECCENTRICITY":0.00071237,"INCLINATION":52.9822,"RA_OF_ASC_NODE":48.2355,"ARG_OF_PERICENTER":175.9464,"MEAN_ANOMALY":184.159,"EPHEMERIS_TYPE":0,"CLASSIFICATION_TYPE":"U","NORAD_CAT_ID":61048,"ELEMENT_SET_NO":999,"REV_AT_EPOCH":8257,"BSTAR":0.00072579441,"MEAN_MOTION_DOT":0.00016068,"MEAN_MOTION_DDOT":0}]
